LEMUR-2-ANDIS           
1 42838U 17042P   26068.55941107  .00023598  00000+0  79875-3 0  9998
2 42838  97.3659 249.7950 0009101   4.3248 355.8070 15.30557934473198
STARLINK-35443          
1 66339U 25253W   26068.42155038  .00039633  00000+0  14414-2 0  9993
2 66339  42.9973 214.0010 0001762 280.0767  79.9886 15.27592799 20204
